OBJECT_NAME,OBJECT_ID,EPOCH,MEAN_MOTION,ECCENTRICITY,INCLINATION,RA_OF_ASC_NODE,ARG_OF_PERICENTER,MEAN_ANOMALY,EPHEMERIS_TYPE,CLASSIFICATION_TYPE,NORAD_CAT_ID,ELEMENT_SET_NO,REV_AT_EPOCH,BSTAR,MEAN_MOTION_DOT,MEAN_MOTION_DDOT
2022-023F,2022-023F,2026-07-16T22:07:37.463232,15.17855551,.01332996,63.4451,172.3989,341.6465,17.9860,0,U,51951,999,24222,.36892587E-3,.9233E-4,0
MERIDIAN 10,2022-030A,2026-07-16T21:04:26.398848,2.00609170,.67923981,62.6768,137.5904,272.8415,17.5970,0,U,52145,999,3162,0,.135E-5,0
OMNI-L1,2022-033A,2026-07-17T11:28:09.499008,14.82848847,.00055261,97.8390,277.0674,170.5974,189.5344,0,U,52157,999,23194,.11345142E-3,.866E-5,0
ENMAP,2022-033C,2026-07-17T13:23:00.038112,14.74942260,.00012855,97.9793,280.3750,81.4266,278.7089,0,U,52159,999,23113,.44558344E-4,.249E-5,0
ARCSAT-1,2022-033E,2026-07-17T12:27:39.926304,15.54314909,.00063324,97.2754,291.2585,91.0234,269.1745,0,U,52161,999,24041,.10568883E-3,.6814E-4,0
GLOBAL-18,2022-034B,2026-07-17T11:50:36.587328,15.47286311,.00045557,52.9817,111.6827,31.2618,328.8658,0,U,52196,999,24165,.26596139E-3,.13372E-3,0
GAOFEN-3 03,2022-035A,2026-07-17T14:48:47.661984,14.42218162,.00017631,98.4062,206.7565,86.9588,273.1803,0,U,52200,999,22523,-.199955E-5,-.5E-6,0
DAQI-1,2022-039A,2026-07-17T14:56:38.992992,14.57692638,.00041396,98.1488,136.8467,141.4924,218.6571,0,U,52257,999,22637,.133685E-6,-.44E-6,0
BRO-6,2022-047AE,2026-07-17T13:51:14.177952,15.52693581,.0002801,97.3386,290.2624,295.4885,64.6078,0,U,52422,999,23586,.3868475E-3,.23798E-3,0
JILIN-1 GAOFEN 3D27,2022-048B,2026-07-17T15:07:48.801216,15.83709931,.0005618,97.5742,315.5252,239.0755,120.9962,0,U,52444,999,23428,.54919301E-3,.121948E-2,0
JILIN-1 GAOFEN 3D28,2022-048C,2026-07-17T11:45:54.093888,15.88938206,.00051451,97.5665,315.6886,239.9221,120.1541,0,U,52445,999,23432,.60333526E-3,.169616E-2,.12494364E-4
VIGORIDE-3,2022-057AE,2026-07-17T08:26:40.014528,15.27561642,.00086986,97.6646,339.1378,27.8800,332.2903,0,U,52760,999,22976,.10518155E-3,.2758E-4,0
ION SCV-006,2022-057AF,2026-07-17T15:46:52.972320,15.45954322,.00165362,97.6140,348.7623,8.8495,351.3042,0,U,52761,999,23082,.13245682E-3,.6384E-4,0
SHERPA-AC1,2022-057AH,2026-07-17T08:24:52.395552,15.36648478,.00069816,97.6725,348.8485,355.9906,4.1281,0,U,52763,999,23033,.110322E-3,.3862E-4,0
OMNI-L2,2022-057AR,2026-07-17T14:02:50.143776,14.81440792,.00058581,97.4700,258.8995,211.3497,148.7369,0,U,52771,999,22489,.75437066E-4,.543E-5,0
STEP CUBE LAB-II,2022-065D,2026-07-17T11:53:56.134176,14.63344729,.00073257,98.2265,342.3104,294.0563,65.9872,0,U,52897,999,21593,.79209169E-4,.361E-5,0
RANDEV,2022-065E,2026-07-17T13:22:21.800928,14.63733368,.00067013,98.2249,342.7364,294.6081,65.4422,0,U,52898,999,21569,.73092977E-4,.332E-5,0
SNUGLITE-II,2022-065F,2026-07-17T05:34:52.307904,14.64396115,.00061859,98.2239,343.0164,292.8673,67.1876,0,U,52899,999,21539,.86535042E-4,.409E-5,0
MIMAN,2022-065G,2026-07-17T08:53:00.773376,14.61872863,.0006356,98.2299,340.7069,295.6982,64.3562,0,U,52900,999,21485,.53345566E-4,.219E-5,0
STARLINK-4362,2022-077A,2026-07-17T10:30:18.607104,15.05654518,.00013236,97.2859,15.7632,101.7305,258.4072,0,U,53043,999,22043,.22785909E-4,.273E-5,0
LARES-2,2022-080A,2026-07-11T06:32:52.952640,6.38965058,.00051703,70.1562,297.0691,331.4390,28.5953,0,U,53105,999,9320,0,-.16E-6,0
GREENCUBE (IO-117),2022-080E,2026-07-17T05:19:51.691584,6.42583336,.00090719,70.1407,287.8015,282.9900,76.9746,0,U,53109,999,9399,0,-.3E-7,0
STARLINK-4410,2022-084R,2026-07-17T14:00:01.999872,15.41058933,.00014661,97.6004,260.7659,80.6455,248.4808,0,U,53204,999,585,.20895548E-2,.87114E-3,0
COSMOS 2558,2022-089A,2026-07-17T04:39:30.256416,15.82105957,.0004178,97.2238,303.6324,223.1888,136.9054,0,U,53323,999,22256,.50984E-3,.104775E-2,0
TECMS,2022-090A,2026-07-17T14:40:14.109024,15.21241942,.00054487,97.3124,265.8560,79.1844,281.0005,0,U,53346,999,21943,.81263655E-4,.1748E-4,0
DONGPO 02,2022-098J,2026-07-17T14:46:01.401600,15.81645968,.00045911,97.5567,332.6149,211.0201,149.0797,0,U,53452,999,21959,.50425885E-3,.101427E-2,0
DONGPO 01,2022-098K,2026-07-17T12:41:59.652960,15.78513074,.00030069,97.5625,332.9490,201.8653,158.2486,0,U,53453,999,21953,.53037601E-3,.92422E-3,0
STARLINK-4400,2022-099D,2026-07-17T06:49:00.688800,15.05657802,.00015576,97.2840,315.6984,127.0627,233.0743,0,U,53468,999,21547,.33515116E-4,.427E-5,0
STARLINK-4621,2022-105AE,2026-07-17T02:05:54.110976,15.05659141,.00016523,97.2839,75.5290,92.3382,267.8035,0,U,53676,999,21270,-.5146447E-5,-.131E-5,0
