2022-023F               
1 51951U 22023F   26197.92196138  .00009233  00000+0  36893-3 0  9992
2 51951  63.4451 172.3989 0133299 341.6465  17.9860 15.17855551242227
MERIDIAN 10             
1 52145U 22030A   26197.87808332  .00000135  00000+0  00000+0 0  9995
2 52145  62.6768 137.5904 6792398 272.8415  17.5970  2.00609170 31622
OMNI-L1                 
1 52157U 22033A   26198.47788772  .00000866  00000+0  11345-3 0  9992
2 52157  97.8390 277.0674 0005526 170.5974 189.5344 14.82848847231949
ENMAP                   
1 52159U 22033C   26198.55763933  .00000249  00000+0  44558-4 0  9993
2 52159  97.9793 280.3750 0001285  81.4266 278.7089 14.74942260231136
ARCSAT-1                
1 52161U 22033E   26198.51921211  .00006814  00000+0  10569-3 0  9995
2 52161  97.2754 291.2585 0006332  91.0234 269.1745 15.54314909240412
GLOBAL-18               
1 52196U 22034B   26198.49347902  .00013372  00000+0  26596-3 0  9994
2 52196  52.9817 111.6827 0004555  31.2618 328.8658 15.47286311241659
GAOFEN-3 03             
1 52200U 22035A   26198.61721831 -.00000050  00000+0 -19996-5 0  9991
2 52200  98.4062 206.7565 0001763  86.9588 273.1803 14.42218162225231
DAQI-1                  
1 52257U 22039A   26198.62267353 -.00000044  00000+0  13368-6 0  9992
2 52257  98.1488 136.8467 0004139 141.4924 218.6571 14.57692638226379
BRO-6                   
1 52422U 22047AE  26198.57724743  .00023798  00000+0  38685-3 0  9996
2 52422  97.3386 290.2624 0002801 295.4885  64.6078 15.52693581235860
JILIN-1 GAOFEN 3D27     
1 52444U 22048B   26198.63042594  .00121948  00000+0  54919-3 0  9999
2 52444  97.5742 315.5252 0005618 239.0755 120.9962 15.83709931234283
JILIN-1 GAOFEN 3D28     
1 52445U 22048C   26198.49020942  .00169616  12494-4  60334-3 0  9994
2 52445  97.5665 315.6886 0005145 239.9221 120.1541 15.88938206234328
VIGORIDE-3              
1 52760U 22057AE  26198.35185202  .00002758  00000+0  10518-3 0  9997
2 52760  97.6646 339.1378 0008698  27.8800 332.2903 15.27561642229767
ION SCV-006             
1 52761U 22057AF  26198.65755755  .00006384  00000+0  13246-3 0  9997
2 52761  97.6140 348.7623 0016536   8.8495 351.3042 15.45954322230821
SHERPA-AC1              
1 52763U 22057AH  26198.35060643  .00003862  00000+0  11032-3 0  9990
2 52763  97.6725 348.8485 0006981 355.9906   4.1281 15.36648478230331
OMNI-L2                 
1 52771U 22057AR  26198.58530259  .00000543  00000+0  75437-4 0  9992
2 52771  97.4700 258.8995 0005858 211.3497 148.7369 14.81440792224893
STEP CUBE LAB-II        
1 52897U 22065D   26198.49578859  .00000361  00000+0  79209-4 0  9997
2 52897  98.2265 342.3104 0007325 294.0563  65.9872 14.63344729215938
RANDEV                  
1 52898U 22065E   26198.55719677  .00000332  00000+0  73093-4 0  9993
2 52898  98.2249 342.7364 0006701 294.6081  65.4422 14.63733368215691
SNUGLITE-II             
1 52899U 22065F   26198.23254986  .00000409  00000+0  86535-4 0  9996
2 52899  98.2239 343.0164 0006185 292.8673  67.1876 14.64396115215391
MIMAN                   
1 52900U 22065G   26198.37014784  .00000219  00000+0  53346-4 0  9997
2 52900  98.2299 340.7069 0006356 295.6982  64.3562 14.61872863214859
STARLINK-4362           
1 53043U 22077A   26198.43771536  .00000273  00000+0  22786-4 0  9995
2 53043  97.2859  15.7632 0001323 101.7305 258.4072 15.05654518220436
LARES-2                 
1 53105U 22080A   26192.27283510 -.00000016  00000+0  00000+0 0  9990
2 53105  70.1562 297.0691 0005170 331.4390  28.5953  6.38965058 93203
GREENCUBE (IO-117)      
1 53109U 22080E   26198.22212606 -.00000003  00000+0  00000+0 0  9999
2 53109  70.1407 287.8015 0009071 282.9900  76.9746  6.42583336 93996
STARLINK-4410           
1 53204U 22084R   26198.58335648  .00087114  00000+0  20896-2 0  9995
2 53204  97.6004 260.7659 0001466  80.6455 248.4808 15.41058933  5853
COSMOS 2558             
1 53323U 22089A   26198.19410019  .00104775  00000+0  50984-3 0  9990
2 53323  97.2238 303.6324 0004178 223.1888 136.9054 15.82105957222560
TECMS                   
1 53346U 22090A   26198.61127441  .00001748  00000+0  81264-4 0  9990
2 53346  97.3124 265.8560 0005448  79.1844 281.0005 15.21241942219431
DONGPO 02               
1 53452U 22098J   26198.61529400  .00101427  00000+0  50426-3 0  9997
2 53452  97.5567 332.6149 0004591 211.0201 149.0797 15.81645968219590
DONGPO 01               
1 53453U 22098K   26198.52916265  .00092422  00000+0  53038-3 0  9993
2 53453  97.5625 332.9490 0003006 201.8653 158.2486 15.78513074219535
STARLINK-4400           
1 53468U 22099D   26198.28403575  .00000427  00000+0  33515-4 0  9991
2 53468  97.2840 315.6984 0001557 127.0627 233.0743 15.05657802215477
STARLINK-4621           
1 53676U 22105AE  26198.08743184 -.00000131  00000+0 -51464-5 0  9999
2 53676  97.2839  75.5290 0001652  92.3382 267.8035 15.05659141212706
